[{"OBJECT_NAME":"STARLINK-37338","OBJECT_ID":"2026-082M","EPOCH":"2026-04-25T22:00:01.999584","MEAN_MOTION":15.75063772,"ECCENTRICITY":7.271e-5,"INCLINATION":97.2853,"RA_OF_ASC_NODE":338.181,"ARG_OF_PERICENTER":69.2716,"MEAN_ANOMALY":69.475,"EPHEMERIS_TYPE":0,"CLASSIFICATION_TYPE":"U","NORAD_CAT_ID":68739,"ELEMENT_SET_NO":999,"REV_AT_EPOCH":277,"BSTAR":0.00061774201,"MEAN_MOTION_DOT":0.00092506,"MEAN_MOTION_DDOT":0},{"OBJECT_NAME":"STARLINK-37314","OBJECT_ID":"2026-082N","EPOCH":"2026-04-25T22:00:01.999584","MEAN_MOTION":15.79383176,"ECCENTRICITY":0.00020198,"INCLINATION":97.2852,"RA_OF_ASC_NODE":338.1874,"ARG_OF_PERICENTER":93.1292,"MEAN_ANOMALY":62.0043,"EPHEMERIS_TYPE":0,"CLASSIFICATION_TYPE":"U","NORAD_CAT_ID":68740,"ELEMENT_SET_NO":999,"REV_AT_EPOCH":277,"BSTAR":-0.012022121,"MEAN_MOTION_DOT":-0.01887093,"MEAN_MOTION_DDOT":0},{"OBJECT_NAME":"STARLINK-36314","OBJECT_ID":"2026-082P","EPOCH":"2026-04-25T22:00:01.999584","MEAN_MOTION":15.80732933,"ECCENTRICITY":0.00012235,"INCLINATION":97.2849,"RA_OF_ASC_NODE":338.1895,"ARG_OF_PERICENTER":98.6735,"MEAN_ANOMALY":61.5966,"EPHEMERIS_TYPE":0,"CLASSIFICATION_TYPE":"U","NORAD_CAT_ID":68741,"ELEMENT_SET_NO":999,"REV_AT_EPOCH":272,"BSTAR":0.00066223622,"MEAN_MOTION_DOT":0.00128099,"MEAN_MOTION_DDOT":0},{"OBJECT_NAME":"STARLINK-37351","OBJECT_ID":"2026-082Q","EPOCH":"2026-04-25T22:00:01.999584","MEAN_MOTION":15.75190291,"ECCENTRICITY":0.00013734,"INCLINATION":97.2849,"RA_OF_ASC_NODE":338.186,"ARG_OF_PERICENTER":68.0168,"MEAN_ANOMALY":84.7025,"EPHEMERIS_TYPE":0,"CLASSIFICATION_TYPE":"U","NORAD_CAT_ID":68742,"ELEMENT_SET_NO":999,"REV_AT_EPOCH":277,"BSTAR":-0.00035055928,"MEAN_MOTION_DOT":-0.00052101,"MEAN_MOTION_DDOT":0},{"OBJECT_NAME":"STARLINK-37354","OBJECT_ID":"2026-082R","EPOCH":"2026-04-25T22:00:01.999584","MEAN_MOTION":15.80715872,"ECCENTRICITY":8.043e-5,"INCLINATION":97.2854,"RA_OF_ASC_NODE":338.1933,"ARG_OF_PERICENTER":88.5073,"MEAN_ANOMALY":80.3301,"EPHEMERIS_TYPE":0,"CLASSIFICATION_TYPE":"U","NORAD_CAT_ID":68743,"ELEMENT_SET_NO":999,"REV_AT_EPOCH":277,"BSTAR":0.00073927111,"MEAN_MOTION_DOT":0.00143153,"MEAN_MOTION_DDOT":0},{"OBJECT_NAME":"STARLINK-37344","OBJECT_ID":"2026-082S","EPOCH":"2026-04-25T22:00:01.999584","MEAN_MOTION":15.80392251,"ECCENTRICITY":0.00019091,"INCLINATION":97.2852,"RA_OF_ASC_NODE":338.1947,"ARG_OF_PERICENTER":90.669,"MEAN_ANOMALY":82.3451,"EPHEMERIS_TYPE":0,"CLASSIFICATION_TYPE":"U","NORAD_CAT_ID":68744,"ELEMENT_SET_NO":999,"REV_AT_EPOCH":277,"BSTAR":-0.011342,"MEAN_MOTION_DOT":-0.01867378,"MEAN_MOTION_DDOT":0},{"OBJECT_NAME":"STARLINK-37267","OBJECT_ID":"2026-082T","EPOCH":"2026-04-25T22:00:01.999584","MEAN_MOTION":15.80746174,"ECCENTRICITY":0.00013,"INCLINATION":97.2849,"RA_OF_ASC_NODE":338.1965,"ARG_OF_PERICENTER":85.7943,"MEAN_ANOMALY":91.5708,"EPHEMERIS_TYPE":0,"CLASSIFICATION_TYPE":"U","NORAD_CAT_ID":68745,"ELEMENT_SET_NO":999,"REV_AT_EPOCH":277,"BSTAR":0.00054744977,"MEAN_MOTION_DOT":0.00105661,"MEAN_MOTION_DDOT":0},{"OBJECT_NAME":"STARLINK-37347","OBJECT_ID":"2026-082U","EPOCH":"2026-04-25T22:00:01.999584","MEAN_MOTION":15.80737249,"ECCENTRICITY":0.00014099,"INCLINATION":97.2846,"RA_OF_ASC_NODE":338.1984,"ARG_OF_PERICENTER":81.6017,"MEAN_ANOMALY":100.0373,"EPHEMERIS_TYPE":0,"CLASSIFICATION_TYPE":"U","NORAD_CAT_ID":68746,"ELEMENT_SET_NO":999,"REV_AT_EPOCH":277,"BSTAR":0.00069440376,"MEAN_MOTION_DOT":0.00134454,"MEAN_MOTION_DDOT":0},{"OBJECT_NAME":"STARLINK-37268","OBJECT_ID":"2026-082V","EPOCH":"2026-04-25T22:00:01.999584","MEAN_MOTION":15.80733927,"ECCENTRICITY":9.777e-5,"INCLINATION":97.2847,"RA_OF_ASC_NODE":338.1996,"ARG_OF_PERICENTER":89.9431,"MEAN_ANOMALY":95.9696,"EPHEMERIS_TYPE":0,"CLASSIFICATION_TYPE":"U","NORAD_CAT_ID":68747,"ELEMENT_SET_NO":999,"REV_AT_EPOCH":277,"BSTAR":0.00068916859,"MEAN_MOTION_DOT":0.00133401,"MEAN_MOTION_DDOT":0},{"OBJECT_NAME":"STARLINK-37325","OBJECT_ID":"2026-082W","EPOCH":"2026-04-25T22:00:01.999584","MEAN_MOTION":15.80772968,"ECCENTRICITY":0.00012513,"INCLINATION":97.2846,"RA_OF_ASC_NODE":338.2017,"ARG_OF_PERICENTER":86.9078,"MEAN_ANOMALY":103.2702,"EPHEMERIS_TYPE":0,"CLASSIFICATION_TYPE":"U","NORAD_CAT_ID":68748,"ELEMENT_SET_NO":999,"REV_AT_EPOCH":277,"BSTAR":0.00026268233,"MEAN_MOTION_DOT":0.00050366,"MEAN_MOTION_DDOT":0},{"OBJECT_NAME":"STARLINK-37324","OBJECT_ID":"2026-082X","EPOCH":"2026-04-25T22:00:01.999584","MEAN_MOTION":15.80783435,"ECCENTRICITY":0.00012892,"INCLINATION":97.2844,"RA_OF_ASC_NODE":338.2049,"ARG_OF_PERICENTER":99.4594,"MEAN_ANOMALY":99.2665,"EPHEMERIS_TYPE":0,"CLASSIFICATION_TYPE":"U","NORAD_CAT_ID":68749,"ELEMENT_SET_NO":999,"REV_AT_EPOCH":277,"BSTAR":0.00015587466,"MEAN_MOTION_DOT":0.00029773,"MEAN_MOTION_DDOT":0},{"OBJECT_NAME":"STARLINK-37350","OBJECT_ID":"2026-082Y","EPOCH":"2026-04-25T22:00:01.999584","MEAN_MOTION":15.78699196,"ECCENTRICITY":0.00017988,"INCLINATION":97.2843,"RA_OF_ASC_NODE":338.2087,"ARG_OF_PERICENTER":95.5844,"MEAN_ANOMALY":109.8063,"EPHEMERIS_TYPE":0,"CLASSIFICATION_TYPE":"U","NORAD_CAT_ID":68750,"ELEMENT_SET_NO":999,"REV_AT_EPOCH":277,"BSTAR":-0.01236994,"MEAN_MOTION_DOT":-0.01882622,"MEAN_MOTION_DDOT":0},{"OBJECT_NAME":"STARLINK-37277","OBJECT_ID":"2026-082Z","EPOCH":"2026-04-25T22:00:01.999584","MEAN_MOTION":15.8077439,"ECCENTRICITY":0.00015137,"INCLINATION":97.2843,"RA_OF_ASC_NODE":338.203,"ARG_OF_PERICENTER":93.4942,"MEAN_ANOMALY":100.9603,"EPHEMERIS_TYPE":0,"CLASSIFICATION_TYPE":"U","NORAD_CAT_ID":68751,"ELEMENT_SET_NO":999,"REV_AT_EPOCH":277,"BSTAR":0.00022816771,"MEAN_MOTION_DOT":0.00043699,"MEAN_MOTION_DDOT":0},{"OBJECT_NAME":"STARLINK-37342","OBJECT_ID":"2026-082AA","EPOCH":"2026-04-25T22:00:01.999584","MEAN_MOTION":15.78337335,"ECCENTRICITY":0.0001994,"INCLINATION":97.2849,"RA_OF_ASC_NODE":338.2061,"ARG_OF_PERICENTER":86.4142,"MEAN_ANOMALY":114.0066,"EPHEMERIS_TYPE":0,"CLASSIFICATION_TYPE":"U","NORAD_CAT_ID":68752,"ELEMENT_SET_NO":999,"REV_AT_EPOCH":277,"BSTAR":-0.012547423,"MEAN_MOTION_DOT":-0.01879325,"MEAN_MOTION_DDOT":0},{"OBJECT_NAME":"2026-083A","OBJECT_ID":"2026-083A","EPOCH":"2026-04-25T15:22:39.987840","MEAN_MOTION":15.22060846,"ECCENTRICITY":0.00647722,"INCLINATION":98.2658,"RA_OF_ASC_NODE":261.774,"ARG_OF_PERICENTER":50.207,"MEAN_ANOMALY":310.4842,"EPHEMERIS_TYPE":0,"CLASSIFICATION_TYPE":"U","NORAD_CAT_ID":68753,"ELEMENT_SET_NO":999,"REV_AT_EPOCH":133,"BSTAR":0.00019877643,"MEAN_MOTION_DOT":4.726e-5,"MEAN_MOTION_DDOT":0},{"OBJECT_NAME":"2026-083B","OBJECT_ID":"2026-083B","EPOCH":"2026-04-25T22:17:11.078880","MEAN_MOTION":15.06540956,"ECCENTRICITY":0.00088253,"INCLINATION":98.2527,"RA_OF_ASC_NODE":261.804,"ARG_OF_PERICENTER":228.2327,"MEAN_ANOMALY":131.8144,"EPHEMERIS_TYPE":0,"CLASSIFICATION_TYPE":"U","NORAD_CAT_ID":68754,"ELEMENT_SET_NO":999,"REV_AT_EPOCH":135,"BSTAR":0.00017611866,"MEAN_MOTION_DOT":2.535e-5,"MEAN_MOTION_DDOT":0}]
