STARLINK-37338          
1 68739U 26082M   26115.91668981  .00092506  00000+0  61774-3 0  9993
2 68739  97.2853 338.1810 0000727  69.2716  69.4750 15.75063772  2770
STARLINK-37314          
1 68740U 26082N   26115.91668981 -.01887093  00000+0 -12022-1 0  9991
2 68740  97.2852 338.1874 0002019  93.1292  62.0043 15.79383176  2773
STARLINK-36314          
1 68741U 26082P   26115.91668981  .00128099  00000+0  66224-3 0  9998
2 68741  97.2849 338.1895 0001223  98.6735  61.5966 15.80732933  2725
STARLINK-37351          
1 68742U 26082Q   26115.91668981 -.00052101  00000+0 -35056-3 0  9990
2 68742  97.2849 338.1860 0001373  68.0168  84.7025 15.75190291  2772
STARLINK-37354          
1 68743U 26082R   26115.91668981  .00143153  00000+0  73927-3 0  9996
2 68743  97.2854 338.1933 0000804  88.5073  80.3301 15.80715872  2773
STARLINK-37344          
1 68744U 26082S   26115.91668981 -.01867378  00000+0 -11342-1 0  9993
2 68744  97.2852 338.1947 0001909  90.6690  82.3451 15.80392251  2773
STARLINK-37267          
1 68745U 26082T   26115.91668981  .00105661  00000+0  54745-3 0  9997
2 68745  97.2849 338.1965 0001300  85.7943  91.5708 15.80746174  2775
STARLINK-37347          
1 68746U 26082U   26115.91668981  .00134454  00000+0  69440-3 0  9998
2 68746  97.2846 338.1984 0001409  81.6017 100.0373 15.80737249  2778
STARLINK-37268          
1 68747U 26082V   26115.91668981  .00133401  00000+0  68917-3 0  9998
2 68747  97.2847 338.1996 0000977  89.9431  95.9696 15.80733927  2772
STARLINK-37325          
1 68748U 26082W   26115.91668981  .00050366  00000+0  26268-3 0  9990
2 68748  97.2846 338.2017 0001251  86.9078 103.2702 15.80772968  2776
STARLINK-37324          
1 68749U 26082X   26115.91668981  .00029773  00000+0  15587-3 0  9991
2 68749  97.2844 338.2049 0001289  99.4594  99.2665 15.80783435  2776
STARLINK-37350          
1 68750U 26082Y   26115.91668981 -.01882622  00000+0 -12370-1 0  9991
2 68750  97.2843 338.2087 0001798  95.5844 109.8063 15.78699196  2776
STARLINK-37277          
1 68751U 26082Z   26115.91668981  .00043699  00000+0  22817-3 0  9991
2 68751  97.2843 338.2030 0001513  93.4942 100.9603 15.80774390  2771
STARLINK-37342          
1 68752U 26082AA  26115.91668981 -.01879325  00000+0 -12547-1 0  9995
2 68752  97.2849 338.2061 0001994  86.4142 114.0066 15.78337335  2779
2026-083A               
1 68753U 26083A   26115.64074060  .00004726  00000+0  19878-3 0  9994
2 68753  98.2658 261.7740 0064772  50.2070 310.4842 15.22060846  1339
2026-083B               
1 68754U 26083B   26115.92860045  .00002535  00000+0  17612-3 0  9992
2 68754  98.2527 261.8040 0008825 228.2327 131.8144 15.06540956  1357
